[
  {
    "OBJECT_NAME": "STARLINK-1398",
    "OBJECT_ID": "20035AU",
    "EPOCH": "2025-11-11T00:11:15.057024",
    "MEAN_MOTION": 15.53751518,
    "ECCENTRICITY": 0.0005606,
    "INCLINATION": 53.0475,
    "RA_OF_ASC_NODE": 165.6298,
    "ARG_OF_PERICENTER": 136.3988,
    "MEAN_ANOMALY": 223.7465,
    "EPHEMERIS_TYPE": 0,
    "CLASSIFICATION_TYPE": "U",
    "NORAD_CAT_ID": 45699,
    "ELEMENT_SET_NO": 999,
    "REV_AT_EPOCH": 30188,
    "BSTAR": 0.0020363,
    "MEAN_MOTION_DOT": 0.00134653,
    "MEAN_MOTION_DDOT": 0.0,
    "TLE_LINE1": "1 45699U 20035AU  25315.00781316  .00134653  00000+0  20363-2 0  9992",
    "TLE_LINE2": "2 45699  53.0475 165.6298 0005606 136.3988 223.7465 15.53751518301881",
    "COMMENT": "Grouped by shell and plane from TLE"
  },
  {
    "OBJECT_NAME": "STARLINK-1407",
    "OBJECT_ID": "20035AY",
    "EPOCH": "2025-11-10T22:09:49.920480",
    "MEAN_MOTION": 15.42846523,
    "ECCENTRICITY": 0.0012481,
    "INCLINATION": 53.0386,
    "RA_OF_ASC_NODE": 165.7669,
    "ARG_OF_PERICENTER": 94.7109,
    "MEAN_ANOMALY": 265.5322,
    "EPHEMERIS_TYPE": 0,
    "CLASSIFICATION_TYPE": "U",
    "NORAD_CAT_ID": 45703,
    "ELEMENT_SET_NO": 999,
    "REV_AT_EPOCH": 30187,
    "BSTAR": 0.0023831,
    "MEAN_MOTION_DOT": 0.00107473,
    "MEAN_MOTION_DDOT": 0.0,
    "TLE_LINE1": "1 45703U 20035AY  25314.92349445  .00107473  00000+0  23831-2 0  9994",
    "TLE_LINE2": "2 45703  53.0386 165.7669 0012481  94.7109 265.5322 15.42846523301876",
    "COMMENT": "Grouped by shell and plane from TLE"
  },
  {
    "OBJECT_NAME": "STARLINK-1686",
    "OBJECT_ID": "20062D",
    "EPOCH": "2025-11-11T06:43:31.897920",
    "MEAN_MOTION": 15.36392369,
    "ECCENTRICITY": 0.0003622,
    "INCLINATION": 53.0488,
    "RA_OF_ASC_NODE": 163.8734,
    "ARG_OF_PERICENTER": 142.7682,
    "MEAN_ANOMALY": 217.3572,
    "EPHEMERIS_TYPE": 0,
    "CLASSIFICATION_TYPE": "U",
    "NORAD_CAT_ID": 46328,
    "ELEMENT_SET_NO": 999,
    "REV_AT_EPOCH": 28680,
    "BSTAR": 0.0031354,
    "MEAN_MOTION_DOT": 0.00114265,
    "MEAN_MOTION_DDOT": 0.0,
    "TLE_LINE1": "1 46328U 20062D   25315.28023030  .00114265  00000+0  31354-2 0  9993",
    "TLE_LINE2": "2 46328  53.0488 163.8734 0003622 142.7682 217.3572 15.36392369286806",
    "COMMENT": "Grouped by shell and plane from TLE"
  },
  {
    "OBJECT_NAME": "STARLINK-1764",
    "OBJECT_ID": "20062U",
    "EPOCH": "2025-11-11T05:51:29.149632",
    "MEAN_MOTION": 15.35020494,
    "ECCENTRICITY": 0.0002395,
    "INCLINATION": 53.0538,
    "RA_OF_ASC_NODE": 165.1736,
    "ARG_OF_PERICENTER": 132.6299,
    "MEAN_ANOMALY": 227.4905,
    "EPHEMERIS_TYPE": 0,
    "CLASSIFICATION_TYPE": "U",
    "NORAD_CAT_ID": 46343,
    "ELEMENT_SET_NO": 999,
    "REV_AT_EPOCH": 28678,
    "BSTAR": 0.0031282,
    "MEAN_MOTION_DOT": 0.00109007,
    "MEAN_MOTION_DDOT": 0.0,
    "TLE_LINE1": "1 46343U 20062U   25315.24408738  .00109007  00000+0  31282-2 0  9996",
    "TLE_LINE2": "2 46343  53.0538 165.1736 0002395 132.6299 227.4905 15.35020494286789",
    "COMMENT": "Grouped by shell and plane from TLE"
  },
  {
    "OBJECT_NAME": "STARLINK-1767",
    "OBJECT_ID": "20062W",
    "EPOCH": "2025-11-11T08:00:03.000384",
    "MEAN_MOTION": 15.53482713,
    "ECCENTRICITY": 0.0012263,
    "INCLINATION": 53.0447,
    "RA_OF_ASC_NODE": 161.4162,
    "ARG_OF_PERICENTER": 108.6574,
    "MEAN_ANOMALY": 290.0175,
    "EPHEMERIS_TYPE": 0,
    "CLASSIFICATION_TYPE": "U",
    "NORAD_CAT_ID": 46345,
    "ELEMENT_SET_NO": 999,
    "REV_AT_EPOCH": 591,
    "BSTAR": 0.0025342999999999997,
    "MEAN_MOTION_DOT": 0.00167131,
    "MEAN_MOTION_DDOT": 0.0,
    "TLE_LINE1": "1 46345U 20062W   25315.33336806  .00167131  00000+0  25343-2 0  9997",
    "TLE_LINE2": "2 46345  53.0447 161.4162 0012263 108.6574 290.0175 15.53482713  5911",
    "COMMENT": "Grouped by shell and plane from TLE"
  },
  {
    "OBJECT_NAME": "STARLINK-1653",
    "OBJECT_ID": "20062AD",
    "EPOCH": "2025-11-11T00:54:05.558112",
    "MEAN_MOTION": 15.30127484,
    "ECCENTRICITY": 0.0002551,
    "INCLINATION": 53.0498,
    "RA_OF_ASC_NODE": 165.6336,
    "ARG_OF_PERICENTER": 139.4615,
    "MEAN_ANOMALY": 220.6575,
    "EPHEMERIS_TYPE": 0,
    "CLASSIFICATION_TYPE": "U",
    "NORAD_CAT_ID": 46352,
    "ELEMENT_SET_NO": 999,
    "REV_AT_EPOCH": 28676,
    "BSTAR": 0.0024606,
    "MEAN_MOTION_DOT": 0.0007308,
    "MEAN_MOTION_DDOT": 0.0,
    "TLE_LINE1": "1 46352U 20062AD  25315.03756433  .00073080  00000+0  24606-2 0  9994",
    "TLE_LINE2": "2 46352  53.0498 165.6336 0002551 139.4615 220.6575 15.30127484286764",
    "COMMENT": "Grouped by shell and plane from TLE"
  },
  {
    "OBJECT_NAME": "STARLINK-1770",
    "OBJECT_ID": "20062BL",
    "EPOCH": "2025-11-10T23:24:20.945088",
    "MEAN_MOTION": 15.39848198,
    "ECCENTRICITY": 0.0009754,
    "INCLINATION": 53.0483,
    "RA_OF_ASC_NODE": 166.9932,
    "ARG_OF_PERICENTER": 122.0427,
    "MEAN_ANOMALY": 238.1526,
    "EPHEMERIS_TYPE": 0,
    "CLASSIFICATION_TYPE": "U",
    "NORAD_CAT_ID": 46383,
    "ELEMENT_SET_NO": 999,
    "REV_AT_EPOCH": 28673,
    "BSTAR": 0.0016587,
    "MEAN_MOTION_DOT": 0.00067136,
    "MEAN_MOTION_DDOT": 0.0,
    "TLE_LINE1": "1 46383U 20062BL  25314.97524242  .00067136  00000+0  16587-2 0  9995",
    "TLE_LINE2": "2 46383  53.0483 166.9932 0009754 122.0427 238.1526 15.39848198286737",
    "COMMENT": "Grouped by shell and plane from TLE"
  },
  {
    "OBJECT_NAME": "STARLINK-1975",
    "OBJECT_ID": "21009AB",
    "EPOCH": "2025-11-11T06:53:36.293568",
    "MEAN_MOTION": 15.39774037,
    "ECCENTRICITY": 0.0012332,
    "INCLINATION": 53.0605,
    "RA_OF_ASC_NODE": 163.0185,
    "ARG_OF_PERICENTER": 114.2188,
    "MEAN_ANOMALY": 246.0106,
    "EPHEMERIS_TYPE": 0,
    "CLASSIFICATION_TYPE": "U",
    "NORAD_CAT_ID": 47573,
    "ELEMENT_SET_NO": 999,
    "REV_AT_EPOCH": 26337,
    "BSTAR": 0.0030348000000000003,
    "MEAN_MOTION_DOT": 0.00123893,
    "MEAN_MOTION_DDOT": 0.0,
    "TLE_LINE1": "1 47573U 21009AB  25315.28722562  .00123893  00000+0  30348-2 0  9993",
    "TLE_LINE2": "2 47573  53.0605 163.0185 0012332 114.2188 246.0106 15.39774037263373",
    "COMMENT": "Grouped by shell and plane from TLE"
  },
  {
    "OBJECT_NAME": "STARLINK-1979",
    "OBJECT_ID": "21009AF",
    "EPOCH": "2025-11-11T08:00:03.000384",
    "MEAN_MOTION": 15.57299582,
    "ECCENTRICITY": 0.0003984,
    "INCLINATION": 53.0493,
    "RA_OF_ASC_NODE": 169.3433,
    "ARG_OF_PERICENTER": 207.1457,
    "MEAN_ANOMALY": 127.6762,
    "EPHEMERIS_TYPE": 0,
    "CLASSIFICATION_TYPE": "U",
    "NORAD_CAT_ID": 47577,
    "ELEMENT_SET_NO": 999,
    "REV_AT_EPOCH": 588,
    "BSTAR": 0.0018511,
    "MEAN_MOTION_DOT": 0.00139549,
    "MEAN_MOTION_DDOT": 0.0,
    "TLE_LINE1": "1 47577U 21009AF  25315.33336806  .00139549  00000+0  18511-2 0  9998",
    "TLE_LINE2": "2 47577  53.0493 169.3433 0003984 207.1457 127.6762 15.57299582  5880",
    "COMMENT": "Grouped by shell and plane from TLE"
  },
  {
    "OBJECT_NAME": "STARLINK-2368",
    "OBJECT_ID": "21021BA",
    "EPOCH": "2025-10-25T08:13:07.021632",
    "MEAN_MOTION": 15.5336506,
    "ECCENTRICITY": 3.53e-05,
    "INCLINATION": 53.0559,
    "RA_OF_ASC_NODE": 164.1311,
    "ARG_OF_PERICENTER": 157.5854,
    "MEAN_ANOMALY": 202.5171,
    "EPHEMERIS_TYPE": 0,
    "CLASSIFICATION_TYPE": "U",
    "NORAD_CAT_ID": 47908,
    "ELEMENT_SET_NO": 999,
    "REV_AT_EPOCH": 25571,
    "BSTAR": 0.013830000000000002,
    "MEAN_MOTION_DOT": 0.00972535,
    "MEAN_MOTION_DDOT": 0.0,
    "TLE_LINE1": "1 47908U 21021BA  25298.34244238  .00972535  00000+0  13830-1 0  9996",
    "TLE_LINE2": "2 47908  53.0559 164.1311 0000353 157.5854 202.5171 15.53365060255712",
    "COMMENT": "Grouped by shell and plane from TLE"
  },
  {
    "OBJECT_NAME": "STARLINK-30192",
    "OBJECT_ID": "23102B",
    "EPOCH": "2025-11-11T08:00:03.000384",
    "MEAN_MOTION": 15.28943355,
    "ECCENTRICITY": 0.0002064,
    "INCLINATION": 43.0004,
    "RA_OF_ASC_NODE": 169.353,
    "ARG_OF_PERICENTER": 279.1267,
    "MEAN_ANOMALY": 71.3906,
    "EPHEMERIS_TYPE": 0,
    "CLASSIFICATION_TYPE": "U",
    "NORAD_CAT_ID": 57405,
    "ELEMENT_SET_NO": 999,
    "REV_AT_EPOCH": 580,
    "BSTAR": 0.040183,
    "MEAN_MOTION_DOT": 0.0126066,
    "MEAN_MOTION_DDOT": 0.0,
    "TLE_LINE1": "1 57405U 23102B   25315.33336806  .01260660  00000+0  40183-1 0  9994",
    "TLE_LINE2": "2 57405  43.0004 169.3530 0002064 279.1267  71.3906 15.28943355  5801",
    "COMMENT": "Grouped by shell and plane from TLE"
  },
  {
    "OBJECT_NAME": "STARLINK-31318",
    "OBJECT_ID": "24020K",
    "EPOCH": "2025-11-08T13:52:13.703232",
    "MEAN_MOTION": 15.3017954,
    "ECCENTRICITY": 0.0001237,
    "INCLINATION": 53.1597,
    "RA_OF_ASC_NODE": 165.2966,
    "ARG_OF_PERICENTER": 74.3429,
    "MEAN_ANOMALY": 285.7708,
    "EPHEMERIS_TYPE": 0,
    "CLASSIFICATION_TYPE": "U",
    "NORAD_CAT_ID": 58885,
    "ELEMENT_SET_NO": 999,
    "REV_AT_EPOCH": 9952,
    "BSTAR": 0.0,
    "MEAN_MOTION_DOT": -8.1e-06,
    "MEAN_MOTION_DDOT": 0.0,
    "TLE_LINE1": "1 58885U 24020K   25312.57793638 -.00000810  00000+0 -15248-4 0  9997",
    "TLE_LINE2": "2 58885  53.1597 165.2966 0001237  74.3429 285.7708 15.30179540 99520",
    "COMMENT": "Grouped by shell and plane from TLE"
  },
  {
    "OBJECT_NAME": "STARLINK-31299",
    "OBJECT_ID": "24041G",
    "EPOCH": "2025-11-11T06:39:51.135552",
    "MEAN_MOTION": 15.28127806,
    "ECCENTRICITY": 0.0001774,
    "INCLINATION": 42.9991,
    "RA_OF_ASC_NODE": 161.5661,
    "ARG_OF_PERICENTER": 255.5762,
    "MEAN_ANOMALY": 104.4893,
    "EPHEMERIS_TYPE": 0,
    "CLASSIFICATION_TYPE": "U",
    "NORAD_CAT_ID": 59080,
    "ELEMENT_SET_NO": 999,
    "REV_AT_EPOCH": 9732,
    "BSTAR": 0.00056419,
    "MEAN_MOTION_DOT": 0.00015557,
    "MEAN_MOTION_DDOT": 0.0,
    "TLE_LINE1": "1 59080U 24041G   25315.27767518  .00015557  00000+0  56419-3 0  9992",
    "TLE_LINE2": "2 59080  42.9991 161.5661 0001774 255.5762 104.4893 15.28127806 97325",
    "COMMENT": "Grouped by shell and plane from TLE"
  }
]